STARLINK-5720           
1 55619U 23020BC  24025.76851569  .00001240  00000+0  10687-3 0  9994
2 55619  43.0020 236.7521 0001220 264.2310  95.8393 15.02533376 52656
STARLINK-5718           
1 55620U 23020BD  24025.76407408  .00000818  00000+0  75580-4 0  9999
2 55620  43.0016 236.7152 0001297 260.0346 100.0350 15.02538909 52659
STARLINK-5709           
1 55621U 23020BE  24025.04280688  .00002256  00000+0  18200-3 0  9993
2 55621  43.0009 240.7686 0001348 272.5112  87.5576 15.02534479 52540
STARLINK-5702           
1 55622U 23020BF  24025.76518028  .00001134  00000+0  98975-4 0  9997
2 55622  43.0016 236.7275 0001246 265.3857  94.6843 15.02542188 52655
STARLINK-5698           
1 55623U 23020BG  24025.09263771 -.00000778  00000+0 -42529-4 0  9995
2 55623  43.0016 240.2791 0001413 255.4749 104.5937 15.02531402 52556
STARLINK-5484           
1 55628U 23021A   24025.32439052  .00000121  00000+0  17902-4 0  9991
2 55628  70.0017 356.9946 0002626 253.3939 106.6932 14.98331569 52301
STARLINK-5497           
1 55629U 23021B   24025.32856542  .00000323  00000+0  34863-4 0  9998
2 55629  70.0019 357.0116 0002222 250.0794 110.0126 14.98331898 52309
STARLINK-5303           
1 55630U 23021C   24025.32021613  .00000116  00000+0  17505-4 0  9997
2 55630  70.0019 356.9797 0002529 248.1342 111.9548 14.98331010 52305
STARLINK-5558           
1 55631U 23021D   24025.29517026 -.00000332  00000+0 -20005-4 0  9993
2 55631  70.0019 356.8903 0002560 256.0732 104.0142 14.98328966 52309
STARLINK-5546           
1 55632U 23021E   24025.31186665 -.00000025  00000+0  57024-5 0  9998
2 55632  70.0019 356.9479 0002688 248.7771 111.3101 14.98330020 52301
STARLINK-5498           
1 55633U 23021F   24025.30769275 -.00000362  00000+0 -22545-4 0  9996
2 55633  70.0021 356.9351 0002683 247.2765 112.8110 14.98329818 52305
STARLINK-5500           
1 55634U 23021G   24025.31604451  .00000069  00000+0  13580-4 0  9993
2 55634  70.0030 356.9647 0002509 236.3486 123.7434 14.98327448 52307
STARLINK-5495           
1 55635U 23021H   24025.29077273 -.00000337  00000+0 -20426-4 0  9994
2 55635  70.0017 337.0109 0002740 251.7499 108.3362 14.98332344 52791
STARLINK-5218           
1 55636U 23021J   24025.29934615 -.00001289  00000+0 -10020-3 0  9992
2 55636  70.0010 356.9048 0002877 254.5853 105.4988 14.98336357 52300
STARLINK-5062           
1 55637U 23021K   24025.24070998  .00004557  00000+0  38966-3 0  9991
2 55637  70.0007 337.2322 0002765 266.6026  93.4817 14.98312469 52783
STARLINK-5507           
1 55638U 23021L   24025.30351892 -.00000250  00000+0 -13143-4 0  9993
2 55638  70.0016 356.9188 0002651 254.1691 105.9176 14.98328258 52304
STARLINK-5508           
1 55639U 23021M   24025.28676649 -.00000876  00000+0 -65639-4 0  9992
2 55639  70.0015 336.9936 0002642 255.5610 104.5256 14.98327789 52794
