[{"OBJECT_NAME":"STARLINK-5720","OBJECT_ID":"2023-020BC","EPOCH":"2024-01-25T18:26:39.755616","MEAN_MOTION":15.02533376,"ECCENTRICITY":0.000122,"INCLINATION":43.002,"RA_OF_ASC_NODE":236.7521,"ARG_OF_PERICENTER":264.231,"MEAN_ANOMALY":95.8393,"EPHEMERIS_TYPE":0,"CLASSIFICATION_TYPE":"U","NORAD_CAT_ID":55619,"ELEMENT_SET_NO":999,"REV_AT_EPOCH":5265,"BSTAR":0.00010687,"MEAN_MOTION_DOT":1.24e-5,"MEAN_MOTION_DDOT":0},{"OBJECT_NAME":"STARLINK-5718","OBJECT_ID":"2023-020BD","EPOCH":"2024-01-25T18:20:16.000512","MEAN_MOTION":15.02538909,"ECCENTRICITY":0.0001297,"INCLINATION":43.0016,"RA_OF_ASC_NODE":236.7152,"ARG_OF_PERICENTER":260.0346,"MEAN_ANOMALY":100.035,"EPHEMERIS_TYPE":0,"CLASSIFICATION_TYPE":"U","NORAD_CAT_ID":55620,"ELEMENT_SET_NO":999,"REV_AT_EPOCH":5265,"BSTAR":7.558e-5,"MEAN_MOTION_DOT":8.18e-6,"MEAN_MOTION_DDOT":0},{"OBJECT_NAME":"STARLINK-5709","OBJECT_ID":"2023-020BE","EPOCH":"2024-01-25T01:01:38.514432","MEAN_MOTION":15.02534479,"ECCENTRICITY":0.0001348,"INCLINATION":43.0009,"RA_OF_ASC_NODE":240.7686,"ARG_OF_PERICENTER":272.5112,"MEAN_ANOMALY":87.5576,"EPHEMERIS_TYPE":0,"CLASSIFICATION_TYPE":"U","NORAD_CAT_ID":55621,"ELEMENT_SET_NO":999,"REV_AT_EPOCH":5254,"BSTAR":0.000182,"MEAN_MOTION_DOT":2.256e-5,"MEAN_MOTION_DDOT":0},{"OBJECT_NAME":"STARLINK-5702","OBJECT_ID":"2023-020BF","EPOCH":"2024-01-25T18:21:51.576192","MEAN_MOTION":15.02542188,"ECCENTRICITY":0.0001246,"INCLINATION":43.0016,"RA_OF_ASC_NODE":236.7275,"ARG_OF_PERICENTER":265.3857,"MEAN_ANOMALY":94.6843,"EPHEMERIS_TYPE":0,"CLASSIFICATION_TYPE":"U","NORAD_CAT_ID":55622,"ELEMENT_SET_NO":999,"REV_AT_EPOCH":5265,"BSTAR":9.8975e-5,"MEAN_MOTION_DOT":1.134e-5,"MEAN_MOTION_DDOT":0},{"OBJECT_NAME":"STARLINK-5698","OBJECT_ID":"2023-020BG","EPOCH":"2024-01-25T02:13:23.898144","MEAN_MOTION":15.02531402,"ECCENTRICITY":0.0001413,"INCLINATION":43.0016,"RA_OF_ASC_NODE":240.2791,"ARG_OF_PERICENTER":255.4749,"MEAN_ANOMALY":104.5937,"EPHEMERIS_TYPE":0,"CLASSIFICATION_TYPE":"U","NORAD_CAT_ID":55623,"ELEMENT_SET_NO":999,"REV_AT_EPOCH":5255,"BSTAR":-4.2529e-5,"MEAN_MOTION_DOT":-7.78e-6,"MEAN_MOTION_DDOT":0},{"OBJECT_NAME":"STARLINK-5484","OBJECT_ID":"2023-021A","EPOCH":"2024-01-25T07:47:07.340928","MEAN_MOTION":14.98331569,"ECCENTRICITY":0.0002626,"INCLINATION":70.0017,"RA_OF_ASC_NODE":356.9946,"ARG_OF_PERICENTER":253.3939,"MEAN_ANOMALY":106.6932,"EPHEMERIS_TYPE":0,"CLASSIFICATION_TYPE":"U","NORAD_CAT_ID":55628,"ELEMENT_SET_NO":999,"REV_AT_EPOCH":5230,"BSTAR":1.7902e-5,"MEAN_MOTION_DOT":1.21e-6,"MEAN_MOTION_DDOT":0},{"OBJECT_NAME":"STARLINK-5497","OBJECT_ID":"2023-021B","EPOCH":"2024-01-25T07:53:08.052288","MEAN_MOTION":14.98331898,"ECCENTRICITY":0.0002222,"INCLINATION":70.0019,"RA_OF_ASC_NODE":357.0116,"ARG_OF_PERICENTER":250.0794,"MEAN_ANOMALY":110.0126,"EPHEMERIS_TYPE":0,"CLASSIFICATION_TYPE":"U","NORAD_CAT_ID":55629,"ELEMENT_SET_NO":999,"REV_AT_EPOCH":5230,"BSTAR":3.4863e-5,"MEAN_MOTION_DOT":3.23e-6,"MEAN_MOTION_DDOT":0},{"OBJECT_NAME":"STARLINK-5303","OBJECT_ID":"2023-021C","EPOCH":"2024-01-25T07:41:06.673632","MEAN_MOTION":14.9833101,"ECCENTRICITY":0.0002529,"INCLINATION":70.0019,"RA_OF_ASC_NODE":356.9797,"ARG_OF_PERICENTER":248.1342,"MEAN_ANOMALY":111.9548,"EPHEMERIS_TYPE":0,"CLASSIFICATION_TYPE":"U","NORAD_CAT_ID":55630,"ELEMENT_SET_NO":999,"REV_AT_EPOCH":5230,"BSTAR":1.7505e-5,"MEAN_MOTION_DOT":1.16e-6,"MEAN_MOTION_DDOT":0},{"OBJECT_NAME":"STARLINK-5558","OBJECT_ID":"2023-021D","EPOCH":"2024-01-25T07:05:02.710464","MEAN_MOTION":14.98328966,"ECCENTRICITY":0.000256,"INCLINATION":70.0019,"RA_OF_ASC_NODE":356.8903,"ARG_OF_PERICENTER":256.0732,"MEAN_ANOMALY":104.0142,"EPHEMERIS_TYPE":0,"CLASSIFICATION_TYPE":"U","NORAD_CAT_ID":55631,"ELEMENT_SET_NO":999,"REV_AT_EPOCH":5230,"BSTAR":-2.0005e-5,"MEAN_MOTION_DOT":-3.32e-6,"MEAN_MOTION_DDOT":0},{"OBJECT_NAME":"STARLINK-5546","OBJECT_ID":"2023-021E","EPOCH":"2024-01-25T07:29:05.278560","MEAN_MOTION":14.9833002,"ECCENTRICITY":0.0002688,"INCLINATION":70.0019,"RA_OF_ASC_NODE":356.9479,"ARG_OF_PERICENTER":248.7771,"MEAN_ANOMALY":111.3101,"EPHEMERIS_TYPE":0,"CLASSIFICATION_TYPE":"U","NORAD_CAT_ID":55632,"ELEMENT_SET_NO":999,"REV_AT_EPOCH":5230,"BSTAR":5.7024e-6,"MEAN_MOTION_DOT":-2.5e-7,"MEAN_MOTION_DDOT":0},{"OBJECT_NAME":"STARLINK-5498","OBJECT_ID":"2023-021F","EPOCH":"2024-01-25T07:23:04.653600","MEAN_MOTION":14.98329818,"ECCENTRICITY":0.0002683,"INCLINATION":70.0021,"RA_OF_ASC_NODE":356.9351,"ARG_OF_PERICENTER":247.2765,"MEAN_ANOMALY":112.811,"EPHEMERIS_TYPE":0,"CLASSIFICATION_TYPE":"U","NORAD_CAT_ID":55633,"ELEMENT_SET_NO":999,"REV_AT_EPOCH":5230,"BSTAR":-2.2545e-5,"MEAN_MOTION_DOT":-3.62e-6,"MEAN_MOTION_DDOT":0},{"OBJECT_NAME":"STARLINK-5500","OBJECT_ID":"2023-021G","EPOCH":"2024-01-25T07:35:06.245664","MEAN_MOTION":14.98327448,"ECCENTRICITY":0.0002509,"INCLINATION":70.003,"RA_OF_ASC_NODE":356.9647,"ARG_OF_PERICENTER":236.3486,"MEAN_ANOMALY":123.7434,"EPHEMERIS_TYPE":0,"CLASSIFICATION_TYPE":"U","NORAD_CAT_ID":55634,"ELEMENT_SET_NO":999,"REV_AT_EPOCH":5230,"BSTAR":1.358e-5,"MEAN_MOTION_DOT":6.9e-7,"MEAN_MOTION_DDOT":0},{"OBJECT_NAME":"STARLINK-5495","OBJECT_ID":"2023-021H","EPOCH":"2024-01-25T06:58:42.763872","MEAN_MOTION":14.98332344,"ECCENTRICITY":0.000274,"INCLINATION":70.0017,"RA_OF_ASC_NODE":337.0109,"ARG_OF_PERICENTER":251.7499,"MEAN_ANOMALY":108.3362,"EPHEMERIS_TYPE":0,"CLASSIFICATION_TYPE":"U","NORAD_CAT_ID":55635,"ELEMENT_SET_NO":999,"REV_AT_EPOCH":5279,"BSTAR":-2.0426e-5,"MEAN_MOTION_DOT":-3.37e-6,"MEAN_MOTION_DDOT":0},{"OBJECT_NAME":"STARLINK-5218","OBJECT_ID":"2023-021J","EPOCH":"2024-01-25T07:11:03.507360","MEAN_MOTION":14.98336357,"ECCENTRICITY":0.0002877,"INCLINATION":70.001,"RA_OF_ASC_NODE":356.9048,"ARG_OF_PERICENTER":254.5853,"MEAN_ANOMALY":105.4988,"EPHEMERIS_TYPE":0,"CLASSIFICATION_TYPE":"U","NORAD_CAT_ID":55636,"ELEMENT_SET_NO":999,"REV_AT_EPOCH":5230,"BSTAR":-0.0001002,"MEAN_MOTION_DOT":-1.289e-5,"MEAN_MOTION_DDOT":0},{"OBJECT_NAME":"STARLINK-5062","OBJECT_ID":"2023-021K","EPOCH":"2024-01-25T05:46:37.342272","MEAN_MOTION":14.98312469,"ECCENTRICITY":0.0002765,"INCLINATION":70.0007,"RA_OF_ASC_NODE":337.2322,"ARG_OF_PERICENTER":266.6026,"MEAN_ANOMALY":93.4817,"EPHEMERIS_TYPE":0,"CLASSIFICATION_TYPE":"U","NORAD_CAT_ID":55637,"ELEMENT_SET_NO":999,"REV_AT_EPOCH":5278,"BSTAR":0.00038966,"MEAN_MOTION_DOT":4.557e-5,"MEAN_MOTION_DDOT":0},{"OBJECT_NAME":"STARLINK-5507","OBJECT_ID":"2023-021L","EPOCH":"2024-01-25T07:17:04.034688","MEAN_MOTION":14.98328258,"ECCENTRICITY":0.0002651,"INCLINATION":70.0016,"RA_OF_ASC_NODE":356.9188,"ARG_OF_PERICENTER":254.1691,"MEAN_ANOMALY":105.9176,"EPHEMERIS_TYPE":0,"CLASSIFICATION_TYPE":"U","NORAD_CAT_ID":55638,"ELEMENT_SET_NO":999,"REV_AT_EPOCH":5230,"BSTAR":-1.3143e-5,"MEAN_MOTION_DOT":-2.5e-6,"MEAN_MOTION_DDOT":0},{"OBJECT_NAME":"STARLINK-5508","OBJECT_ID":"2023-021M","EPOCH":"2024-01-25T06:52:56.624736","MEAN_MOTION":14.98327789,"ECCENTRICITY":0.0002642,"INCLINATION":70.0015,"RA_OF_ASC_NODE":336.9936,"ARG_OF_PERICENTER":255.561,"MEAN_ANOMALY":104.5256,"EPHEMERIS_TYPE":0,"CLASSIFICATION_TYPE":"U","NORAD_CAT_ID":55639,"ELEMENT_SET_NO":999,"REV_AT_EPOCH":5279,"BSTAR":-6.5639e-5,"MEAN_MOTION_DOT":-8.76e-6,"MEAN_MOTION_DDOT":0}]
